INTELSAT 30 (IS-30)     
1 40271U 14062A   26088.16764031 -.00000170  00000+0  00000+0 0  9996
2 40271   0.0204  94.8872 0001071  37.8149  19.1641  1.00272082  5998
DIRECTV 14              
1 40333U 14078B   26088.22090531  .00000000  00000+0  00000+0 0  9997
2 40333   0.0204 158.8421 0000438 332.2551  35.8149  1.00267656 41240
DIRECTV 15              
1 40663U 15026A   26088.16616697 -.00000122  00000+0  00000+0 0  9993
2 40663   0.0291  97.1725 0000648 123.9045 282.4331  1.00276024 39665
SKY MEXICO-1            
1 40664U 15026B   26088.17093366  .00000000  00000+0  00000+0 0  9991
2 40664   0.0237 185.9538 0002412 203.1207 140.2475  1.00269208 39651
INTELSAT 34 (IS-34)     
1 40874U 15039A   26087.96363917 -.00000305  00000+0  00000+0 0  9995
2 40874   0.0212 266.2509 0000371   9.7285 201.8052  1.00272556 38829
INTELSAT 31 (IS-31)     
1 41581U 16035A   26088.09634484 -.00000170  00000+0  00000+0 0  9993
2 41581   0.0192 229.2474 0001973  24.0977 232.7845  1.00272468 35887
INTELSAT 36 (IS-36)     
1 41747U 16053A   26088.04782140  .00000000  00000+0  00000+0 0  9996
2 41747   0.0136 179.2191 0001309 141.7633 311.2044  1.00269119 35151
INTELSAT 32E (IS-32E)   
1 41945U 17007B   26088.17795368  .00000000  00000+0  00000+0 0  9996
2 41945   0.0241 178.4201 0000644 112.0226 277.0379  1.00270876 33421
INTELSAT 35E (IS-35E)   
1 42818U 17041A   26088.15382957 -.00000257  00000+0  00000+0 0  9993
2 42818   0.0151 196.5249 0002159 167.2179 203.6743  1.00271175 32013
INTELSAT 37E (IS-37E)   
1 42950U 17059A   26088.18289370  .00000000  00000+0  00000+0 0  9992
2 42950   0.0240 174.6890 0002046 203.0189 216.7299  1.00268791 31260
AZERSPACE 2 (IS-38)     
1 43632U 18074A   26088.12413348  .00000117  00000+0  00000+0 0  9995
2 43632   0.0198 221.0109 0001426 134.2853 281.0290  1.00270307 27643
HORIZONS-3E             
1 43633U 18074B   26087.86338477 -.00000051  00000+0  00000+0 0  9993
2 43633   0.0174   6.2567 0000957 301.1616 358.6615  1.00270217 27539
AT&T T-16               
1 44333U 19034A   26088.09521816 -.00000134  00000+0  00000+0 0  9997
2 44333   0.0217 107.4453 0000854  90.0691 282.3987  1.00270415 24831
INTELSAT 39 (IS-39)     
1 44476U 19049B   26088.12751348  .00000000  00000+0  00000+0 0  9991
2 44476   0.0240 180.4819 0000318  29.8483  84.0568  1.00269615 24322
GALAXY 30 (G-30)        
1 46114U 20056C   26088.14350223  .00000000  00000+0  00000+0 0  9991
2 46114   0.0236 173.2951 0002219 209.3258  90.5858  1.00270272 20491
GALAXY 33 (G-33)        
1 54026U 22128A   26088.14905973  .00000060  00000+0  00000+0 0  9998
2 54026   0.0301  80.1245 0001895 276.1347 110.9311  1.00270461 12949
GALAXY 34 (G-34)        
1 54027U 22128B   26087.99766987  .00000000  00000+0  00000+0 0  9995
2 54027   0.0198 168.1748 0001553 192.7151  55.7511  1.00268461 13100
