[{"OBJECT_NAME":"INTELSAT 30 (IS-30)","OBJECT_ID":"2014-062A","EPOCH":"2026-03-29T04:01:24.122784","MEAN_MOTION":1.00272082,"ECCENTRICITY":0.0001071,"INCLINATION":0.0204,"RA_OF_ASC_NODE":94.8872,"ARG_OF_PERICENTER":37.8149,"MEAN_ANOMALY":19.1641,"EPHEMERIS_TYPE":0,"CLASSIFICATION_TYPE":"U","NORAD_CAT_ID":40271,"ELEMENT_SET_NO":999,"REV_AT_EPOCH":599,"BSTAR":0,"MEAN_MOTION_DOT":-1.7e-6,"MEAN_MOTION_DDOT":0},{"OBJECT_NAME":"DIRECTV 14","OBJECT_ID":"2014-078B","EPOCH":"2026-03-29T05:18:06.218784","MEAN_MOTION":1.00267656,"ECCENTRICITY":4.38e-5,"INCLINATION":0.0204,"RA_OF_ASC_NODE":158.8421,"ARG_OF_PERICENTER":332.2551,"MEAN_ANOMALY":35.8149,"EPHEMERIS_TYPE":0,"CLASSIFICATION_TYPE":"U","NORAD_CAT_ID":40333,"ELEMENT_SET_NO":999,"REV_AT_EPOCH":4124,"BSTAR":0,"MEAN_MOTION_DOT":0,"MEAN_MOTION_DDOT":0},{"OBJECT_NAME":"DIRECTV 15","OBJECT_ID":"2015-026A","EPOCH":"2026-03-29T03:59:16.826208","MEAN_MOTION":1.00276024,"ECCENTRICITY":6.48e-5,"INCLINATION":0.0291,"RA_OF_ASC_NODE":97.1725,"ARG_OF_PERICENTER":123.9045,"MEAN_ANOMALY":282.4331,"EPHEMERIS_TYPE":0,"CLASSIFICATION_TYPE":"U","NORAD_CAT_ID":40663,"ELEMENT_SET_NO":999,"REV_AT_EPOCH":3966,"BSTAR":0,"MEAN_MOTION_DOT":-1.22e-6,"MEAN_MOTION_DDOT":0},{"OBJECT_NAME":"SKY MEXICO-1","OBJECT_ID":"2015-026B","EPOCH":"2026-03-29T04:06:08.668224","MEAN_MOTION":1.00269208,"ECCENTRICITY":0.0002412,"INCLINATION":0.0237,"RA_OF_ASC_NODE":185.9538,"ARG_OF_PERICENTER":203.1207,"MEAN_ANOMALY":140.2475,"EPHEMERIS_TYPE":0,"CLASSIFICATION_TYPE":"U","NORAD_CAT_ID":40664,"ELEMENT_SET_NO":999,"REV_AT_EPOCH":3965,"BSTAR":0,"MEAN_MOTION_DOT":0,"MEAN_MOTION_DDOT":0},{"OBJECT_NAME":"INTELSAT 34 (IS-34)","OBJECT_ID":"2015-039A","EPOCH":"2026-03-28T23:07:38.424288","MEAN_MOTION":1.00272556,"ECCENTRICITY":3.71e-5,"INCLINATION":0.0212,"RA_OF_ASC_NODE":266.2509,"ARG_OF_PERICENTER":9.7285,"MEAN_ANOMALY":201.8052,"EPHEMERIS_TYPE":0,"CLASSIFICATION_TYPE":"U","NORAD_CAT_ID":40874,"ELEMENT_SET_NO":999,"REV_AT_EPOCH":3882,"BSTAR":0,"MEAN_MOTION_DOT":-3.05e-6,"MEAN_MOTION_DDOT":0},{"OBJECT_NAME":"INTELSAT 31 (IS-31)","OBJECT_ID":"2016-035A","EPOCH":"2026-03-29T02:18:44.194176","MEAN_MOTION":1.00272468,"ECCENTRICITY":0.0001973,"INCLINATION":0.0192,"RA_OF_ASC_NODE":229.2474,"ARG_OF_PERICENTER":24.0977,"MEAN_ANOMALY":232.7845,"EPHEMERIS_TYPE":0,"CLASSIFICATION_TYPE":"U","NORAD_CAT_ID":41581,"ELEMENT_SET_NO":999,"REV_AT_EPOCH":3588,"BSTAR":0,"MEAN_MOTION_DOT":-1.7e-6,"MEAN_MOTION_DDOT":0},{"OBJECT_NAME":"INTELSAT 36 (IS-36)","OBJECT_ID":"2016-053A","EPOCH":"2026-03-29T01:08:51.768960","MEAN_MOTION":1.00269119,"ECCENTRICITY":0.0001309,"INCLINATION":0.0136,"RA_OF_ASC_NODE":179.2191,"ARG_OF_PERICENTER":141.7633,"MEAN_ANOMALY":311.2044,"EPHEMERIS_TYPE":0,"CLASSIFICATION_TYPE":"U","NORAD_CAT_ID":41747,"ELEMENT_SET_NO":999,"REV_AT_EPOCH":3515,"BSTAR":0,"MEAN_MOTION_DOT":0,"MEAN_MOTION_DDOT":0},{"OBJECT_NAME":"INTELSAT 32E (IS-32E)","OBJECT_ID":"2017-007B","EPOCH":"2026-03-29T04:16:15.197952","MEAN_MOTION":1.00270876,"ECCENTRICITY":6.44e-5,"INCLINATION":0.0241,"RA_OF_ASC_NODE":178.4201,"ARG_OF_PERICENTER":112.0226,"MEAN_ANOMALY":277.0379,"EPHEMERIS_TYPE":0,"CLASSIFICATION_TYPE":"U","NORAD_CAT_ID":41945,"ELEMENT_SET_NO":999,"REV_AT_EPOCH":3342,"BSTAR":0,"MEAN_MOTION_DOT":0,"MEAN_MOTION_DDOT":0},{"OBJECT_NAME":"INTELSAT 35E (IS-35E)","OBJECT_ID":"2017-041A","EPOCH":"2026-03-29T03:41:30.874848","MEAN_MOTION":1.00271175,"ECCENTRICITY":0.0002159,"INCLINATION":0.0151,"RA_OF_ASC_NODE":196.5249,"ARG_OF_PERICENTER":167.2179,"MEAN_ANOMALY":203.6743,"EPHEMERIS_TYPE":0,"CLASSIFICATION_TYPE":"U","NORAD_CAT_ID":42818,"ELEMENT_SET_NO":999,"REV_AT_EPOCH":3201,"BSTAR":0,"MEAN_MOTION_DOT":-2.57e-6,"MEAN_MOTION_DDOT":0},{"OBJECT_NAME":"INTELSAT 37E (IS-37E)","OBJECT_ID":"2017-059A","EPOCH":"2026-03-29T04:23:22.015680","MEAN_MOTION":1.00268791,"ECCENTRICITY":0.0002046,"INCLINATION":0.024,"RA_OF_ASC_NODE":174.689,"ARG_OF_PERICENTER":203.0189,"MEAN_ANOMALY":216.7299,"EPHEMERIS_TYPE":0,"CLASSIFICATION_TYPE":"U","NORAD_CAT_ID":42950,"ELEMENT_SET_NO":999,"REV_AT_EPOCH":3126,"BSTAR":0,"MEAN_MOTION_DOT":0,"MEAN_MOTION_DDOT":0},{"OBJECT_NAME":"AZERSPACE 2 (IS-38)","OBJECT_ID":"2018-074A","EPOCH":"2026-03-29T02:58:45.132672","MEAN_MOTION":1.00270307,"ECCENTRICITY":0.0001426,"INCLINATION":0.0198,"RA_OF_ASC_NODE":221.0109,"ARG_OF_PERICENTER":134.2853,"MEAN_ANOMALY":281.029,"EPHEMERIS_TYPE":0,"CLASSIFICATION_TYPE":"U","NORAD_CAT_ID":43632,"ELEMENT_SET_NO":999,"REV_AT_EPOCH":2764,"BSTAR":0,"MEAN_MOTION_DOT":1.17e-6,"MEAN_MOTION_DDOT":0},{"OBJECT_NAME":"HORIZONS-3E","OBJECT_ID":"2018-074B","EPOCH":"2026-03-28T20:43:16.444128","MEAN_MOTION":1.00270217,"ECCENTRICITY":9.57e-5,"INCLINATION":0.0174,"RA_OF_ASC_NODE":6.2567,"ARG_OF_PERICENTER":301.1616,"MEAN_ANOMALY":358.6615,"EPHEMERIS_TYPE":0,"CLASSIFICATION_TYPE":"U","NORAD_CAT_ID":43633,"ELEMENT_SET_NO":999,"REV_AT_EPOCH":2753,"BSTAR":0,"MEAN_MOTION_DOT":-5.1e-7,"MEAN_MOTION_DDOT":0},{"OBJECT_NAME":"AT&T T-16","OBJECT_ID":"2019-034A","EPOCH":"2026-03-29T02:17:06.849024","MEAN_MOTION":1.00270415,"ECCENTRICITY":8.54e-5,"INCLINATION":0.0217,"RA_OF_ASC_NODE":107.4453,"ARG_OF_PERICENTER":90.0691,"MEAN_ANOMALY":282.3987,"EPHEMERIS_TYPE":0,"CLASSIFICATION_TYPE":"U","NORAD_CAT_ID":44333,"ELEMENT_SET_NO":999,"REV_AT_EPOCH":2483,"BSTAR":0,"MEAN_MOTION_DOT":-1.34e-6,"MEAN_MOTION_DDOT":0},{"OBJECT_NAME":"INTELSAT 39 (IS-39)","OBJECT_ID":"2019-049B","EPOCH":"2026-03-29T03:03:37.164672","MEAN_MOTION":1.00269615,"ECCENTRICITY":3.18e-5,"INCLINATION":0.024,"RA_OF_ASC_NODE":180.4819,"ARG_OF_PERICENTER":29.8483,"MEAN_ANOMALY":84.0568,"EPHEMERIS_TYPE":0,"CLASSIFICATION_TYPE":"U","NORAD_CAT_ID":44476,"ELEMENT_SET_NO":999,"REV_AT_EPOCH":2432,"BSTAR":0,"MEAN_MOTION_DOT":0,"MEAN_MOTION_DDOT":0},{"OBJECT_NAME":"GALAXY 30 (G-30)","OBJECT_ID":"2020-056C","EPOCH":"2026-03-29T03:26:38.592672","MEAN_MOTION":1.00270272,"ECCENTRICITY":0.0002219,"INCLINATION":0.0236,"RA_OF_ASC_NODE":173.2951,"ARG_OF_PERICENTER":209.3258,"MEAN_ANOMALY":90.5858,"EPHEMERIS_TYPE":0,"CLASSIFICATION_TYPE":"U","NORAD_CAT_ID":46114,"ELEMENT_SET_NO":999,"REV_AT_EPOCH":2049,"BSTAR":0,"MEAN_MOTION_DOT":0,"MEAN_MOTION_DDOT":0},{"OBJECT_NAME":"GALAXY 33 (G-33)","OBJECT_ID":"2022-128A","EPOCH":"2026-03-29T03:34:38.760672","MEAN_MOTION":1.00270461,"ECCENTRICITY":0.0001895,"INCLINATION":0.0301,"RA_OF_ASC_NODE":80.1245,"ARG_OF_PERICENTER":276.1347,"MEAN_ANOMALY":110.9311,"EPHEMERIS_TYPE":0,"CLASSIFICATION_TYPE":"U","NORAD_CAT_ID":54026,"ELEMENT_SET_NO":999,"REV_AT_EPOCH":1294,"BSTAR":0,"MEAN_MOTION_DOT":6.0e-7,"MEAN_MOTION_DDOT":0},{"OBJECT_NAME":"GALAXY 34 (G-34)","OBJECT_ID":"2022-128B","EPOCH":"2026-03-28T23:56:38.676768","MEAN_MOTION":1.00268461,"ECCENTRICITY":0.0001553,"INCLINATION":0.0198,"RA_OF_ASC_NODE":168.1748,"ARG_OF_PERICENTER":192.7151,"MEAN_ANOMALY":55.7511,"EPHEMERIS_TYPE":0,"CLASSIFICATION_TYPE":"U","NORAD_CAT_ID":54027,"ELEMENT_SET_NO":999,"REV_AT_EPOCH":1310,"BSTAR":0,"MEAN_MOTION_DOT":0,"MEAN_MOTION_DDOT":0}]
